[{"OBJECT_NAME":"STARLINK-35941","OBJECT_ID":"2025-268AC","EPOCH":"2026-03-09T04:01:15.320352","MEAN_MOTION":15.27614759,"ECCENTRICITY":0.0001704,"INCLINATION":43.0043,"RA_OF_ASC_NODE":349.6827,"ARG_OF_PERICENTER":259.9625,"MEAN_ANOMALY":100.1035,"EPHEMERIS_TYPE":0,"CLASSIFICATION_TYPE":"U","NORAD_CAT_ID":66583,"ELEMENT_SET_NO":999,"REV_AT_EPOCH":1788,"BSTAR":0.0012194103,"MEAN_MOTION_DOT":0.00033482,"MEAN_MOTION_DDOT":0},{"OBJECT_NAME":"SL-3 R\/B","OBJECT_ID":"1983-003B","EPOCH":"2026-03-09T21:31:00.897888","MEAN_MOTION":15.34640469,"ECCENTRICITY":0.00285789,"INCLINATION":81.155,"RA_OF_ASC_NODE":261.9078,"ARG_OF_PERICENTER":155.4571,"MEAN_ANOMALY":204.8036,"EPHEMERIS_TYPE":0,"CLASSIFICATION_TYPE":"U","NORAD_CAT_ID":13771,"ELEMENT_SET_NO":999,"REV_AT_EPOCH":35642,"BSTAR":0.00033440366,"MEAN_MOTION_DOT":0.00011405,"MEAN_MOTION_DDOT":0}]
